[{"OBJECT_NAME":"CYGFM03","OBJECT_ID":"2016-078H","EPOCH":"2026-03-09T23:11:20.561280","MEAN_MOTION":15.54861223,"ECCENTRICITY":0.00057526,"INCLINATION":34.9405,"RA_OF_ASC_NODE":169.5167,"ARG_OF_PERICENTER":310.9342,"MEAN_ANOMALY":49.0883,"EPHEMERIS_TYPE":0,"CLASSIFICATION_TYPE":"U","NORAD_CAT_ID":41891,"ELEMENT_SET_NO":999,"REV_AT_EPOCH":51349,"BSTAR":0.00042675413,"MEAN_MOTION_DOT":0.0002949,"MEAN_MOTION_DDOT":0},{"OBJECT_NAME":"OBJECT E","OBJECT_ID":"2022-019E","EPOCH":"2026-03-09T23:02:18.608640","MEAN_MOTION":15.54311687,"ECCENTRICITY":0.0007625,"INCLINATION":97.3769,"RA_OF_ASC_NODE":162.7783,"ARG_OF_PERICENTER":112.7188,"MEAN_ANOMALY":247.4872,"EPHEMERIS_TYPE":0,"CLASSIFICATION_TYPE":"U","NORAD_CAT_ID":51828,"ELEMENT_SET_NO":999,"REV_AT_EPOCH":22455,"BSTAR":0.00045599749,"MEAN_MOTION_DOT":0.00029815,"MEAN_MOTION_DDOT":0}]
